SatCatId,ObjectName,LaunchYear,OrbitalPeriod,LaunchMass,StatusCode,Inclination,Status,UcsData,OrbitClassEstimated,LaunchSiteCountry,Owner,UseType,Purpose,LaunchVehicleClass,TLE1,TLE2,MeanMotion,Eccentricity,OrbitClass
47834,STARLINK-2424,2021,95.59,260.0,+,53.05,Active,1,LEO,USA,USA,Commercial,Communications,Falcon,1 47834U 21018AZ  23275.74808017 -.00009390  00000+0 -61235-3 0  9994,2 47834  53.0533 282.2321 0002516  88.8039 271.3238 15.06395352142661,15.06395352,0.0002516,LEO
47835,STARLINK-2425,2021,95.59,260.0,+,53.05,Active,1,LEO,USA,USA,Commercial,Communications,Falcon,1 47835U 21018BA  23276.17336244  .00012314  00000+0  84426-3 0  9996,2 47835  53.0527 285.4495 0001952 105.4107 254.7098 15.06392883142268,15.06392883,0.0001952,LEO
47836,STARLINK-2426,2021,95.59,260.0,+,53.05,Active,1,LEO,USA,USA,Commercial,Communications,Falcon,1 47836U 21018BB  23276.16460273  .00009206  00000+0  63639-3 0  9995,2 47836  53.0536 280.4504 0001674 118.3021 241.8137 15.06384139142338,15.06384139,0.0001674,LEO
47837,STARLINK-2427,2021,95.59,260.0,+,53.05,Active,1,LEO,USA,USA,Commercial,Communications,Falcon,1 47837U 21018BC  23276.17381261  .00018511  00000+0  12590-2 0  9994,2 47837  53.0541 260.3219 0001217  92.4784 267.6344 15.06379515142626,15.06379515,0.0001217,LEO
47838,STARLINK-2429,2021,95.59,260.0,+,53.05,Active,1,LEO,USA,USA,Commercial,Communications,Falcon,1 47838U 21018BD  23276.45209800  .00005556  00000+0  39163-3 0  9995,2 47838  53.0532 279.0721 0001438  96.6179 263.4974 15.06394238142386,15.06394238,0.0001438,LEO
47839,STARLINK-2431,2021,95.59,260.0,+,53.05,Active,1,LEO,USA,USA,Commercial,Communications,Falcon,1 47839U 21018BE  23276.21527696  .00017728  00000+0  12066-2 0  9992,2 47839  53.0555 250.1398 0001335  92.4945 267.6197 15.06382365142777,15.06382365,0.0001335,LEO
47840,STARLINK-2432,2021,95.59,260.0,+,53.05,Active,1,LEO,USA,USA,Commercial,Communications,Falcon,1 47840U 21018BF  23276.22541321  .00002471  00000+0  18479-3 0  9990,2 47840  53.0530 260.0903 0001431 100.1137 260.0013 15.06391350142623,15.0639135,0.0001431,LEO
47841,STARLINK-2433,2021,95.59,260.0,+,53.05,Active,1,LEO,USA,USA,Commercial,Communications,Falcon,1 47841U 21018BG  23276.22172672  .00018578  00000+0  12634-2 0  9991,2 47841  53.0532 260.1050 0001473  96.9333 263.1824 15.06382524142623,15.06382524,0.0001473,LEO
47842,STARLINK-2434,2021,95.59,260.0,+,53.05,Active,1,LEO,USA,USA,Commercial,Communications,Falcon,1 47842U 21018BH  23276.20790685 -.00000171  00000+0  74303-5 0  9995,2 47842  53.0562 290.1704 0001555  96.3466 263.7700 15.06389283142200,15.06389283,0.0001555,LEO
47843,STARLINK-2435,2021,95.59,260.0,+,53.05,Active,1,LEO,USA,USA,Commercial,Communications,Falcon,1 47843U 21018BJ  23276.18071844  .00000961  00000+0  83380-4 0  9992,2 47843  53.0542 285.2897 0001446  94.7660 265.3494 15.06410968142274,15.06410968,0.0001446,LEO
47844,STARLINK-2446,2021,95.59,260.0,+,53.05,Active,1,LEO,USA,USA,Commercial,Communications,Falcon,1 47844U 21018BK  23275.71490525 -.00008207  00000+0 -53274-3 0  9993,2 47844  53.0542 282.3844 0002039  91.0763 269.0459 15.06394623142606,15.06394623,0.0002039,LEO
47845,STARLINK-2453,2021,95.59,260.0,+,53.05,Active,1,LEO,USA,USA,Commercial,Communications,Falcon,1 47845U 21018BL  23276.19776471  .00009368  00000+0  64738-3 0  9998,2 47845  53.0527 280.2135 0001264  89.1118 271.0015 15.06373882142347,15.06373882,0.0001264,LEO
47846,STARLINK-2456,2021,95.59,260.0,+,53.05,Active,1,LEO,USA,USA,Commercial,Communications,Falcon,1 47846U 21018BM  23276.19313217  .00010279  00000+0  70839-3 0  9996,2 47846  53.0532 280.2231 0001145  85.0344 275.0776 15.06377014142344,15.06377014,0.0001145,LEO
47851,SHIYAN 9 (SY-9),2021,1436.12,5000.0,+,18.64,Active,1,GSO,PRC,China,Government,Technology Development,Long March,1 47851U 21019A   23275.88325881 -.00000243  00000+0  00000+0 0  9998,2 47851  18.6383 315.1222 0012697 355.1786 165.8742  1.00270239 14228,1.00270239,0.0012697,GSO
47854,YAOGAN-31 K,2021,107.04,500.0,+,63.41,Active,1,LEO,PRC,China,Military,Earth Observation,Long March,1 47854U 21020A   23276.48018675 -.00000022  00000+0  11205-3 0  9998,2 47854  63.4071 275.0198 0086429 355.9226   4.1087 13.45274314125691,13.45274314,0.0086429,LEO
47856,YAOGAN-31 L,2021,107.04,500.0,+,63.41,Active,1,LEO,PRC,China,Military,Earth Observation,Long March,1 47856U 21020C   23276.55471860 -.00000027  00000+0  10360-3 0  9993,2 47856  63.4065 275.6603 0086170 355.9797   4.0527 13.45274194125682,13.45274194,0.008617,LEO
47857,YAOGAN-31 M,2021,107.04,500.0,+,63.41,Active,1,LEO,PRC,China,Military,Earth Observation,Long March,1 47857U 21020D   23276.48041141 -.00000018  00000+0  11981-3 0  9991,2 47857  63.4076 275.0511 0086333 355.9500   4.0817 13.45274233125686,13.45274233,0.0086333,LEO
47860,STARLINK-2258,2021,95.59,260.0,+,53.05,Active,1,LEO,USA,USA,Commercial,Communications,Falcon,1 47860U 21021A   23276.13232925 -.00005008  00000+0 -31775-3 0  9998,2 47860  53.0543 310.5078 0001402  16.2094 343.8939 15.06373995141643,15.06373995,0.0001402,LEO
47861,STARLINK-2280,2021,95.59,260.0,+,53.05,Active,1,LEO,USA,USA,Commercial,Communications,Falcon,1 47861U 21021B   23276.21664642 -.00010279  00000+0 -67242-3 0  9997,2 47861  53.0535 295.1275 0001630 117.2037 242.9119 15.06385995141860,15.06385995,0.000163,LEO
47862,STARLINK-2291,2021,95.59,260.0,+,53.05,Active,1,LEO,USA,USA,Commercial,Communications,Falcon,1 47862U 21021C   23276.19684564 -.00002860  00000+0 -17318-3 0  9996,2 47862  53.0535 290.2185 0001564  60.5471 299.5674 15.06402628141930,15.06402628,0.0001564,LEO
47863,STARLINK-2293,2021,95.59,260.0,+,53.05,Active,1,LEO,USA,USA,Commercial,Communications,Falcon,1 47863U 21021D   23276.35441442  .00020741  00000+0  14082-2 0  9991,2 47863  53.0548 299.5134 0001324 100.3179 259.7960 15.06373875141817,15.06373875,0.0001324,LEO
47864,STARLINK-2304,2021,95.59,260.0,+,53.05,Active,1,LEO,USA,USA,Commercial,Communications,Falcon,1 47864U 21021E   23276.20052930  .00010034  00000+0  69193-3 0  9994,2 47864  53.0540 290.2504 0001190  86.6624 273.4501 15.06380453141927,15.06380453,0.000119,LEO
47865,STARLINK-2310,2021,95.59,260.0,+,53.05,Active,1,LEO,USA,USA,Commercial,Communications,Falcon,1 47865U 21021F   23276.39401820  .00021393  00000+0  14515-2 0  9998,2 47865  53.0523 299.3243 0001473  92.9795 267.1363 15.06380904141839,15.06380904,0.0001473,LEO
47866,STARLINK-2320,2021,95.59,-1.0,+,53.05,Active,0,LEO,USA,USA,Unknown,Unknown,Falcon,1 47866U 21021G   23276.33230272  .00017282  00000+0  11773-2 0  9999,2 47866  53.0531 299.6132 0001101  86.4955 273.6160 15.06366774141828,15.06366774,0.0001101,LEO
47867,STARLINK-2321,2021,95.59,260.0,+,53.05,Active,1,LEO,USA,USA,Commercial,Communications,Falcon,1 47867U 21021H   23276.19315792  .00013584  00000+0  92944-3 0  9996,2 47867  53.0544 290.2343 0001275  92.2085 267.9050 15.06384990141942,15.0638499,0.0001275,LEO
47868,STARLINK-2323,2021,95.59,260.0,+,53.05,Active,1,LEO,USA,USA,Commercial,Communications,Falcon,1 47868U 21021J   23276.18671582  .00015310  00000+0  10448-2 0  9995,2 47868  53.0535 240.2654 0001405 104.2958 255.8187 15.06387130142645,15.0638713,0.0001405,LEO
47869,STARLINK-2324,2021,95.59,260.0,+,53.05,Active,1,LEO,USA,USA,Commercial,Communications,Falcon,1 47869U 21021K   23276.18946349  .00004185  00000+0  29991-3 0  9994,2 47869  53.0541 290.2491 0001341  81.3308 278.7833 15.06373583141941,15.06373583,0.0001341,LEO
47870,STARLINK-2326,2021,95.59,260.0,+,53.05,Active,1,LEO,USA,USA,Commercial,Communications,Falcon,1 47870U 21021L   23276.14111304  .00000947  00000+0  82477-4 0  9998,2 47870  53.0534 315.4717 0001488  92.5594 267.5565 15.06384160141579,15.0638416,0.0001488,LEO
47871,STARLINK-2327,2021,95.59,260.0,+,53.05,Active,1,LEO,USA,USA,Commercial,Communications,Falcon,1 47871U 21021M   23276.18578272 -.00005772  00000+0 -36903-3 0  9999,2 47871  53.0531 290.2671 0001430  91.2233 268.8919 15.06387165141945,15.06387165,0.000143,LEO
47873,STARLINK-2329,2021,95.59,260.0,+,53.05,Active,1,LEO,USA,USA,Commercial,Communications,Falcon,1 47873U 21021P   23276.36639991  .00019483  00000+0  13239-2 0  9995,2 47873  53.0530 289.4558 0001457  94.9605 265.1551 15.06381066141960,15.06381066,0.0001457,LEO
47874,STARLINK-2330,2021,95.59,260.0,+,53.05,Active,1,LEO,USA,USA,Commercial,Communications,Falcon,1 47874U 21021Q   23276.17704061  .00016605  00000+0  11317-2 0  9994,2 47874  53.0533 245.3164 0001383  95.2233 264.8914 15.06376834142560,15.06376834,0.0001383,LEO
47875,STARLINK-2331,2021,95.59,260.0,+,53.05,Active,1,LEO,USA,USA,Commercial,Communications,Falcon,1 47875U 21021R   23276.09271494 -.00003625  00000+0 -22457-3 0  9993,2 47875  53.0521 300.6884 0001702  70.1292 289.9880 15.06404857141784,15.06404857,0.0001702,LEO
47876,STARLINK-2332,2021,95.59,260.0,+,53.05,Active,1,LEO,USA,USA,Commercial,Communications,Falcon,1 47876U 21021S   23276.21434555  .00012830  00000+0  87919-3 0  9997,2 47876  53.0536 300.1399 0001341  67.9611 292.1521 15.06376281141805,15.06376281,0.0001341,LEO
47877,STARLINK-2333,2021,95.59,260.0,+,53.05,Active,1,LEO,USA,USA,Commercial,Communications,Falcon,1 47877U 21021T   23276.09639611  .00006875  00000+0  48013-3 0  9998,2 47877  53.0538 300.6701 0001495 103.0582 257.0574 15.06386849141785,15.06386849,0.0001495,LEO
47878,STARLINK-2335,2021,95.59,260.0,+,53.05,Active,1,LEO,USA,USA,Commercial,Communications,Falcon,1 47878U 21021U   23276.37283731 -.00004089  00000+0 -25591-3 0  9991,2 47878  53.0531 299.4294 0001447  91.7488 268.3666 15.06383651141837,15.06383651,0.0001447,LEO
47879,STARLINK-2336,2021,95.59,260.0,+,53.05,Active,1,LEO,USA,USA,Commercial,Communications,Falcon,1 47879U 21021V   23276.36961650  .00011353  00000+0  78029-3 0  9998,2 47879  53.0530 314.4439 0001589 107.1997 252.9166 15.06377001141612,15.06377001,0.0001589,LEO
